[{"OBJECT_NAME":"STARLINK-5707","OBJECT_ID":"2023-083D","EPOCH":"2026-03-09T08:07:19.397280","MEAN_MOTION":15.02539003,"ECCENTRICITY":0.00018288,"INCLINATION":43.0047,"RA_OF_ASC_NODE":84.0238,"ARG_OF_PERICENTER":268.9861,"MEAN_ANOMALY":91.0772,"EPHEMERIS_TYPE":0,"CLASSIFICATION_TYPE":"U","NORAD_CAT_ID":56879,"ELEMENT_SET_NO":999,"REV_AT_EPOCH":15161,"BSTAR":2.8929964e-5,"MEAN_MOTION_DOT":1.87e-6,"MEAN_MOTION_DDOT":0},{"OBJECT_NAME":"FENGYUN 1C DEB","OBJECT_ID":"1999-025AJJ","EPOCH":"2026-03-09T18:40:58.380672","MEAN_MOTION":15.18672988,"ECCENTRICITY":0.00638575,"INCLINATION":98.7226,"RA_OF_ASC_NODE":259.4919,"ARG_OF_PERICENTER":168.3626,"MEAN_ANOMALY":191.9098,"EPHEMERIS_TYPE":0,"CLASSIFICATION_TYPE":"U","NORAD_CAT_ID":30520,"ELEMENT_SET_NO":999,"REV_AT_EPOCH":2360,"BSTAR":0.0014000942,"MEAN_MOTION_DOT":0.0003064,"MEAN_MOTION_DDOT":0}]
